[{"OBJECT_NAME":"STARLINK-5316","OBJECT_ID":"2023-010AN","EPOCH":"2026-03-09T22:49:06.160800","MEAN_MOTION":14.98327455,"ECCENTRICITY":0.00028885,"INCLINATION":70.0012,"RA_OF_ASC_NODE":23.987,"ARG_OF_PERICENTER":269.3873,"MEAN_ANOMALY":90.6955,"EPHEMERIS_TYPE":0,"CLASSIFICATION_TYPE":"U","NORAD_CAT_ID":55305,"ELEMENT_SET_NO":999,"REV_AT_EPOCH":17331,"BSTAR":-3.714607e-6,"MEAN_MOTION_DOT":-1.37e-6,"MEAN_MOTION_DDOT":0},{"OBJECT_NAME":"LEMUR-2-LUCILLE-ROSE","OBJECT_ID":"2025-135BV","EPOCH":"2026-03-09T20:33:39.744864","MEAN_MOTION":14.98437227,"ECCENTRICITY":0.00099823,"INCLINATION":97.7607,"RA_OF_ASC_NODE":185.354,"ARG_OF_PERICENTER":240.475,"MEAN_ANOMALY":119.5478,"EPHEMERIS_TYPE":0,"CLASSIFICATION_TYPE":"U","NORAD_CAT_ID":65403,"ELEMENT_SET_NO":999,"REV_AT_EPOCH":3375,"BSTAR":0.0012144011,"MEAN_MOTION_DOT":0.00014478,"MEAN_MOTION_DDOT":0}]
